SL-16 R/B               
1 23405U 94077B   26178.86161771  .00000086  00000+0  68467-4 0  9990
2 23405  70.9829 120.7056 0003521 318.5547  41.5308 14.15577637631823
ARIANE 40+ R/B          
1 23561U 95021B   26178.98640243  .00000237  00000+0  89332-4 0  9994
2 23561  98.4408 248.9052 0007149 161.8314  11.8422 14.39838879635111
SL-16 R/B               
1 23705U 95058B   26178.80322961 -.00000123  00000+0 -38319-4 0  9994
2 23705  71.0229 309.0690 0014432 305.8444  54.1337 14.15511951583438
SL-16 R/B               
1 24298U 96051B   26178.72510914  .00000126  00000+0  95001-4 0  9996
2 24298  70.7651 302.3467 0016376 321.6710  38.3245 14.12449591537180
ORBVIEW 2 (SEASTAR)     
1 24883U 97037A   26178.89303502  .00000244  00000+0  10083-3 0  9999
2 24883  98.8695 346.2091 0003338  95.1116 265.0449 14.35558682524285
SL-16 R/B               
1 25400U 98043G   26178.88728733  .00000034  00000+0  33384-4 0  9996
2 25400  98.8369 133.1388 0010806  58.4538 301.7695 14.26070271454690
SL-16 R/B               
1 25407U 98045B   26178.76015100  .00000254  00000+0  15255-3 0  9999
2 25407  71.0122 310.0934 0008916 228.0440 131.9924 14.16204264442680
ISS (ZARYA)             
1 25544U 98067A   26178.70295938  .00005900  00000+0  11337-3 0  9998
2 25544  51.6321 248.0384 0004261 239.2483 120.8086 15.49456407573389
CZ-4B R/B               
1 25732U 99025C   26178.88330166  .00000048  00000+0  44048-4 0  9998
2 25732  98.6479 220.4525 0037618  29.5080 143.9545 14.18285114403781
OKEAN-O                 
1 25860U 99039A   26178.89113786  .00000576  00000+0  82111-4 0  9992
2 25860  97.9311 237.5660 0001297  70.3005 289.8347 14.80479317450695
SL-16 R/B               
1 25861U 99039B   26178.76791677  .00000455  00000+0  64369-4 0  9991
2 25861  97.9834 237.6007 0013386 259.0612 100.9095 14.81854797453162
DELTA 2 R/B             
1 25876U 99041E   26178.86340741  .00001031  00000+0  20388-3 0  9996
2 25876  51.7627 221.1469 0501007 313.5723  42.4623 14.12033558378595
HELIOS 1B               
1 25977U 99064A   26178.73600596  .00001314  00000+0  14944-3 0  9991
2 25977  98.1607  84.1807 0002499  76.8159 283.3335 14.88032925701626
TERRA                   
1 25994U 99068A   26178.92748325  .00000369  00000+0  83994-4 0  9999
2 25994  97.9451 228.0477 0002419 159.1965  13.8393 14.61111043411171
SL-16 R/B               
1 26070U 00006B   26178.87474850  .00000259  00000+0  15565-3 0  9998
2 26070  71.0014 226.1531 0016220   6.2090 353.9231 14.15839123364150
TITAN 4B R/B            
1 26474U 00047B   26178.92182040  .00002698  00000+0  16886-3 0  9990
2 26474  67.9892  90.3572 0045904 276.2326  83.3595 15.10254698409559
ENVISAT                 
1 27386U 02009A   26178.87893292  .00000073  00000+0  37633-4 0  9994
2 27386  98.3837 129.9591 0001390  86.7614 291.5164 14.39067140275026
IDEFIX & ARIANE 42P R/B 
1 27422U 02021B   26178.82688244  .00000186  00000+0  87104-4 0  9996
2 27422  98.5943 116.1948 0010881 219.2968 140.7426 14.31086667259778
AQUA                    
1 27424U 02022A   26178.92808778  .00000751  00000+0  15898-3 0  9994
2 27424  98.4281 148.4258 0000749  67.7686 317.6733 14.62173506284846
CZ-4B R/B               
1 27432U 02024C   26178.94287752  .00000041  00000+0  43601-4 0  9996
2 27432  98.8695 231.6930 0051154  70.3196 102.3954 14.14565802244821
MIDORI II (ADEOS-II)    
1 27597U 02056A   26178.84828859  .00000227  00000+0  10698-3 0  9996
2 27597  98.7883 138.1990 0002064  63.1477 296.9915 14.29354982226037
H-2A R/B                
1 27601U 02056E   26178.88813436  .00000176  00000+0  76199-4 0  9993
2 27601  98.3316 135.1728 0069770 192.3425 177.3717 14.33826359229909
CZ-4B R/B               
1 28059U 03049C   26178.95837075  .00000256  00000+0  70367-4 0  9997
2 28059  98.6900 178.2339 0046910 254.8762 104.7242 14.55106498202631
CZ-2C R/B               
1 28222U 04012C   26178.80042175  .00110358  00000+0  56018-3 0  9994
2 28222  97.7073 255.7140 0010489 244.3117 115.7068 15.81102502221579
SL-16 R/B               
1 28353U 04021B   26178.90952584  .00000173  00000+0  11496-3 0  9998
2 28353  71.0007   1.1854 0006801 241.1605 118.8835 14.14607986138429
CZ-4B R/B               
1 28415U 04035C   26178.65750427  .00007104  00000+0  23847-3 0  9990
2 28415  97.3364 211.6133 0028982 298.9027  60.9307 15.30768220196721
CZ-2C R/B               
1 28480U 04046B   26178.98954499  .00000087  00000+0  47664-4 0  9992
2 28480  98.1937  87.0950 0139101 188.1674 171.7243 14.27028857124231
ARIANE 5 R/B            
1 28499U 04049H   26178.90778188  .00000538  00000+0  65822-4 0  9993
2 28499  98.2727 351.5751 0083699 354.7991   5.2344 14.85461020162153
CZ-2D R/B               
1 28738U 05024B   26178.79895184  .00056689  00000+0  45721-3 0  9999
2 28738  97.3479 198.7648 0001127  20.4696 339.6612 15.70723820157008
ALOS (DAICHI)           
1 28931U 06002A   26178.84483474  .00001029  00000+0  17956-3 0  9999
2 28931  98.1328 134.3793 0001063  59.5391 300.5920 14.70070448 89661
