OBJECT_NAME,OBJECT_ID,EPOCH,MEAN_MOTION,ECCENTRICITY,INCLINATION,RA_OF_ASC_NODE,ARG_OF_PERICENTER,MEAN_ANOMALY,EPHEMERIS_TYPE,CLASSIFICATION_TYPE,NORAD_CAT_ID,ELEMENT_SET_NO,REV_AT_EPOCH,BSTAR,MEAN_MOTION_DOT,MEAN_MOTION_DDOT
SL-16 R/B,1994-077B,2026-06-27T20:40:43.770144,14.15577637,.00035212,70.9829,120.7056,318.5547,41.5308,0,U,23405,999,63182,.68466542E-4,.86E-6,0
ARIANE 40+ R/B,1995-021B,2026-06-27T23:40:25.169952,14.39838879,.00071495,98.4408,248.9052,161.8314,11.8422,0,U,23561,999,63511,.89331643E-4,.237E-5,0
SL-16 R/B,1995-058B,2026-06-27T19:16:39.038304,14.15511951,.00144329,71.0229,309.0690,305.8444,54.1337,0,U,23705,999,58343,-.38319106E-4,-.123E-5,0
SL-16 R/B,1996-051B,2026-06-27T17:24:09.429696,14.12449591,.00163769,70.7651,302.3467,321.6710,38.3245,0,U,24298,999,53718,.95001285E-4,.126E-5,0
ORBVIEW 2 (SEASTAR),1997-037A,2026-06-27T21:25:58.225728,14.35558682,.00033386,98.8695,346.2091,95.1116,265.0449,0,U,24883,999,52428,.10082954E-3,.244E-5,0
SL-16 R/B,1998-043G,2026-06-27T21:17:41.625312,14.26070271,.00108067,98.8369,133.1388,58.4538,301.7695,0,U,25400,999,45469,.33383509E-4,.34E-6,0
SL-16 R/B,1998-045B,2026-06-27T18:14:37.046400,14.16204264,.00089162,71.0122,310.0934,228.0440,131.9924,0,U,25407,999,44268,.15255016E-3,.254E-5,0
ISS (ZARYA),1998-067A,2026-06-27T16:52:15.690432,15.49456407,.00042612,51.6321,248.0384,239.2483,120.8086,0,U,25544,999,57338,.11337238E-3,.59E-4,0
CZ-4B R/B,1999-025C,2026-06-27T21:11:57.263424,14.18285114,.00376186,98.6479,220.4525,29.5080,143.9545,0,U,25732,999,40378,.44047521E-4,.48E-6,0
OKEAN-O,1999-039A,2026-06-27T21:23:14.311104,14.80479317,.00012972,97.9311,237.5660,70.3005,289.8347,0,U,25860,999,45069,.82111269E-4,.576E-5,0
SL-16 R/B,1999-039B,2026-06-27T18:25:48.008928,14.81854797,.00133869,97.9834,237.6007,259.0612,100.9095,0,U,25861,999,45316,.64369273E-4,.455E-5,0
DELTA 2 R/B,1999-041E,2026-06-27T20:43:18.400224,14.12033558,.05010079,51.7627,221.1469,313.5723,42.4623,0,U,25876,999,37859,.2038847E-3,.1031E-4,0
HELIOS 1B,1999-064A,2026-06-27T17:39:50.914944,14.88032925,.00024994,98.1607,84.1807,76.8159,283.3335,0,U,25977,999,70162,.14943751E-3,.1314E-4,0
TERRA,1999-068A,2026-06-27T22:15:34.552800,14.61111043,.00024193,97.9451,228.0477,159.1965,13.8393,0,U,25994,999,41117,.83993535E-4,.369E-5,0
SL-16 R/B,2000-006B,2026-06-27T20:59:38.270400,14.15839123,.00162204,71.0014,226.1531,6.2090,353.9231,0,U,26070,999,36415,.1556494E-3,.259E-5,0
TITAN 4B R/B,2000-047B,2026-06-27T22:07:25.282560,15.10254698,.0045904,67.9892,90.3572,276.2326,83.3595,0,U,26474,999,40955,.16886167E-3,.2698E-4,0
ENVISAT,2002-009A,2026-06-27T21:05:39.804288,14.39067140,.00013902,98.3837,129.9591,86.7614,291.5164,0,U,27386,999,27502,.37632813E-4,.73E-6,0
IDEFIX & ARIANE 42P R/B,2002-021B,2026-06-27T19:50:42.642816,14.31086667,.00108813,98.5943,116.1948,219.2968,140.7426,0,U,27422,999,25977,.87104163E-4,.186E-5,0
AQUA,2002-022A,2026-06-27T22:16:26.784192,14.62173506,.00007494,98.4281,148.4258,67.7686,317.6733,0,U,27424,999,28484,.15898251E-3,.751E-5,0
CZ-4B R/B,2002-024C,2026-06-27T22:37:44.617728,14.14565802,.00511545,98.8695,231.6930,70.3196,102.3954,0,U,27432,999,24482,.4360089E-4,.41E-6,0
MIDORI II (ADEOS-II),2002-056A,2026-06-27T20:21:32.134176,14.29354982,.00020644,98.7883,138.1990,63.1477,296.9915,0,U,27597,999,22603,.10697889E-3,.227E-5,0
H-2A R/B,2002-056E,2026-06-27T21:18:54.808704,14.33826359,.00697704,98.3316,135.1728,192.3425,177.3717,0,U,27601,999,22990,.76198792E-4,.176E-5,0
CZ-4B R/B,2003-049C,2026-06-27T23:00:03.232800,14.55106498,.00469108,98.6900,178.2339,254.8762,104.7242,0,U,28059,999,20263,.7036739E-4,.256E-5,0
CZ-2C R/B,2004-012C,2026-06-27T19:12:36.439200,15.81102502,.00104891,97.7073,255.7140,244.3117,115.7068,0,U,28222,999,22157,.56018241E-3,.110358E-2,0
SL-16 R/B,2004-021B,2026-06-27T21:49:43.032576,14.14607986,.0006801,71.0007,1.1854,241.1605,118.8835,0,U,28353,999,13842,.11496487E-3,.173E-5,0
CZ-4B R/B,2004-035C,2026-06-27T15:46:48.368928,15.30768220,.00289821,97.3364,211.6133,298.9027,60.9307,0,U,28415,999,19672,.23847475E-3,.7104E-4,0
CZ-2C R/B,2004-046B,2026-06-27T23:44:56.687136,14.27028857,.01391013,98.1937,87.0950,188.1674,171.7243,0,U,28480,999,12423,.47663628E-4,.87E-6,0
ARIANE 5 R/B,2004-049H,2026-06-27T21:47:12.354432,14.85461020,.00836999,98.2727,351.5751,354.7991,5.2344,0,U,28499,999,16215,.65822039E-4,.538E-5,0
CZ-2D R/B,2005-024B,2026-06-27T19:10:29.438976,15.70723820,.00011274,97.3479,198.7648,20.4696,339.6612,0,U,28738,999,15700,.45721042E-3,.56689E-3,0
ALOS (DAICHI),2006-002A,2026-06-27T20:16:33.721536,14.70070448,.00010638,98.1328,134.3793,59.5391,300.5920,0,U,28931,999,8966,.17955701E-3,.1029E-4,0
